[{"CCSDS_OMM_VERS":"2.0","COMMENT":"GENERATED VIA SPACE-TRACK.ORG API","CREATION_DATE":"2020-02-03T17:59:46","ORIGINATOR":"18 SPCS","OBJECT_NAME":"ONEWEB-0007","OBJECT_ID":"2019-010D","CENTER_NAME":"EARTH","REF_FRAME":"TEME","TIME_SYSTEM":"UTC","MEAN_ELEMENT_THEORY":"SGP4","EPOCH":"2020-02-03T03:38:32.723232","MEAN_MOTION":"13.21814176","ECCENTRICITY":"0.00018030","INCLINATION":"87.9233","RA_OF_ASC_NODE":"1.3710","ARG_OF_PERICENTER":"76.4424","MEAN_ANOMALY":"283.6911","EPHEMERIS_TYPE":"0","CLASSIFICATION_TYPE":"U","NORAD_CAT_ID":"44060","ELEMENT_SET_NO":"999","REV_AT_EPOCH":"4518","BSTAR":"0.00010489000000","MEAN_MOTION_DOT":"0.00000056","MEAN_MOTION_DDOT":"0.0000000000000","SEMIMAJOR_AXIS":"7555.935","PERIOD":"108.941","APOAPSIS":"1179.162","PERIAPSIS":"1176.438","OBJECT_TYPE":"PAYLOAD","RCS_SIZE":"LARGE","COUNTRY_CODE":"UK","LAUNCH_DATE":"2019-02-27","SITE":"FRGUI","DECAY_DATE":null,"FILE":"2694522","GP_ID":"147980719","TLE_LINE0":"0 ONEWEB-0007","TLE_LINE1":"1 44060U 19010D   20034.15176763 +.00000056 +00000-0 +10489-3 0  9996","TLE_LINE2":"2 44060 087.9233 001.3710 0001803 076.4424 283.6911 13.21814176045181"},{"CCSDS_OMM_VERS":"2.0","COMMENT":"GENERATED VIA SPACE-TRACK.ORG API","CREATION_DATE":"2020-02-04T18:31:20","ORIGINATOR":"18 SPCS","OBJECT_NAME":"ONEWEB-0007","OBJECT_ID":"2019-010D","CENTER_NAME":"EARTH","REF_FRAME":"TEME","TIME_SYSTEM":"UTC","MEAN_ELEMENT_THEORY":"SGP4","EPOCH":"2020-02-04T14:09:37.013472","MEAN_MOTION":"13.21814208","ECCENTRICITY":"0.00017860","INCLINATION":"87.9235","RA_OF_ASC_NODE":"1.0842","ARG_OF_PERICENTER":"76.3412","MEAN_ANOMALY":"283.7921","EPHEMERIS_TYPE":"0","CLASSIFICATION_TYPE":"U","NORAD_CAT_ID":"44060","ELEMENT_SET_NO":"999","REV_AT_EPOCH":"4537","BSTAR":"-0.00004233300000","MEAN_MOTION_DOT":"-0.00000004","MEAN_MOTION_DDOT":"0.0000000000000","SEMIMAJOR_AXIS":"7555.935","PERIOD":"108.941","APOAPSIS":"1179.149","PERIAPSIS":"1176.450","OBJECT_TYPE":"PAYLOAD","RCS_SIZE":"LARGE","COUNTRY_CODE":"UK","LAUNCH_DATE":"2019-02-27","SITE":"FRGUI","DECAY_DATE":null,"FILE":"2695219","GP_ID":"148072683","TLE_LINE0":"0 ONEWEB-0007","TLE_LINE1":"1 44060U 19010D   20035.59001173 -.00000004 +00000-0 -42333-4 0  9996","TLE_LINE2":"2 44060 087.9235 001.0842 0001786 076.3412 283.7921 13.21814208045371"},{"CCSDS_OMM_VERS":"2.0","COMMENT":"GENERATED VIA SPACE-TRACK.ORG API","CREATION_DATE":"2020-02-05T19:36:34","ORIGINATOR":"18 SPCS","OBJECT_NAME":"ONEWEB-0007","OBJECT_ID":"2019-010D","CENTER_NAME":"EARTH","REF_FRAME":"TEME","TIME_SYSTEM":"UTC","MEAN_ELEMENT_THEORY":"SGP4","EPOCH":"2020-02-05T04:41:38.830848","MEAN_MOTION":"13.21814192","ECCENTRICITY":"0.00017800","INCLINATION":"87.9236","RA_OF_ASC_NODE":"0.9635","ARG_OF_PERICENTER":"76.2894","MEAN_ANOMALY":"283.8438","EPHEMERIS_TYPE":"0","CLASSIFICATION_TYPE":"U","NORAD_CAT_ID":"44060","ELEMENT_SET_NO":"999","REV_AT_EPOCH":"4545","BSTAR":"-0.00006942400000","MEAN_MOTION_DOT":"-0.00000016","MEAN_MOTION_DDOT":"0.0000000000000","SEMIMAJOR_AXIS":"7555.935","PERIOD":"108.941","APOAPSIS":"1179.145","PERIAPSIS":"1176.455","OBJECT_TYPE":"PAYLOAD","RCS_SIZE":"LARGE","COUNTRY_CODE":"UK","LAUNCH_DATE":"2019-02-27","SITE":"FRGUI","DECAY_DATE":null,"FILE":"2695752","GP_ID":"148103544","TLE_LINE0":"0 ONEWEB-0007","TLE_LINE1":"1 44060U 19010D   20036.19558832 -.00000016 +00000-0 -69424-4 0  9995","TLE_LINE2":"2 44060 087.9236 000.9635 0001780 076.2894 283.8438 13.21814192045452"},{"CCSDS_OMM_VERS":"2.0","COMMENT":"GENERATED VIA SPACE-TRACK.ORG API","CREATION_DATE":"2020-02-06T01:51:16","ORIGINATOR":"18 SPCS","OBJECT_NAME":"ONEWEB-0007","OBJECT_ID":"2019-010D","CENTER_NAME":"EARTH","REF_FRAME":"TEME","TIME_SYSTEM":"UTC","MEAN_ELEMENT_THEORY":"SGP4","EPOCH":"2020-02-05T17:24:40.428288","MEAN_MOTION":"13.21814163","ECCENTRICITY":"0.00017750","INCLINATION":"87.9237","RA_OF_ASC_NODE":"0.8578","ARG_OF_PERICENTER":"76.1716","MEAN_ANOMALY":"283.9616","EPHEMERIS_TYPE":"0","CLASSIFICATION_TYPE":"U","NORAD_CAT_ID":"44060","ELEMENT_SET_NO":"999","REV_AT_EPOCH":"4552","BSTAR":"-0.00007534600000","MEAN_MOTION_DOT":"-0.00000018","MEAN_MOTION_DDOT":"0.0000000000000","SEMIMAJOR_AXIS":"7555.935","PERIOD":"108.941","APOAPSIS":"1179.141","PERIAPSIS":"1176.459","OBJECT_TYPE":"PAYLOAD","RCS_SIZE":"LARGE","COUNTRY_CODE":"UK","LAUNCH_DATE":"2019-02-27","SITE":"FRGUI","DECAY_DATE":null,"FILE":"2695865","GP_ID":"148145129","TLE_LINE0":"0 ONEWEB-0007","TLE_LINE1":"1 44060U 19010D   20036.72546792 -.00000018 +00000-0 -75346-4 0  9998","TLE_LINE2":"2 44060 087.9237 000.8578 0001775 076.1716 283.9616 13.21814163045529"},{"CCSDS_OMM_VERS":"2.0","COMMENT":"GENERATED VIA SPACE-TRACK.ORG API","CREATION_DATE":"2020-02-06T06:20:14","ORIGINATOR":"18 SPCS","OBJECT_NAME":"ONEWEB-0007","OBJECT_ID":"2019-010D","CENTER_NAME":"EARTH","REF_FRAME":"TEME","TIME_SYSTEM":"UTC","MEAN_ELEMENT_THEORY":"SGP4","EPOCH":"2020-02-06T04:18:41.806656","MEAN_MOTION":"13.21814114","ECCENTRICITY":"0.00017750","INCLINATION":"87.9238","RA_OF_ASC_NODE":"0.7673","ARG_OF_PERICENTER":"76.0968","MEAN_ANOMALY":"284.0363","EPHEMERIS_TYPE":"0","CLASSIFICATION_TYPE":"U","NORAD_CAT_ID":"44060","ELEMENT_SET_NO":"999","REV_AT_EPOCH":"4558","BSTAR":"-0.00006644900000","MEAN_MOTION_DOT":"-0.00000014","MEAN_MOTION_DDOT":"0.0000000000000","SEMIMAJOR_AXIS":"7555.935","PERIOD":"108.941","APOAPSIS":"1179.141","PERIAPSIS":"1176.459","OBJECT_TYPE":"PAYLOAD","RCS_SIZE":"LARGE","COUNTRY_CODE":"UK","LAUNCH_DATE":"2019-02-27","SITE":"FRGUI","DECAY_DATE":null,"FILE":"2695881","GP_ID":"148146053","TLE_LINE0":"0 ONEWEB-0007","TLE_LINE1":"1 44060U 19010D   20037.17965054 -.00000014  00000-0 -66449-4 0  9994","TLE_LINE2":"2 44060  87.9238   0.7673 0001775  76.0968 284.0363 13.21814114 45586"},{"CCSDS_OMM_VERS":"2.0","COMMENT":"GENERATED VIA SPACE-TRACK.ORG API","CREATION_DATE":"2020-02-06T16:46:50","ORIGINATOR":"18 SPCS","OBJECT_NAME":"ONEWEB-0007","OBJECT_ID":"2019-010D","CENTER_NAME":"EARTH","REF_FRAME":"TEME","TIME_SYSTEM":"UTC","MEAN_ELEMENT_THEORY":"SGP4","EPOCH":"2020-02-06T07:56:42.269856","MEAN_MOTION":"13.21814071","ECCENTRICITY":"0.00017140","INCLINATION":"87.9236","RA_OF_ASC_NODE":"0.7373","ARG_OF_PERICENTER":"76.0679","MEAN_ANOMALY":"284.0646","EPHEMERIS_TYPE":"0","CLASSIFICATION_TYPE":"U","NORAD_CAT_ID":"44060","ELEMENT_SET_NO":"999","REV_AT_EPOCH":"4560","BSTAR":"-0.00000889980000","MEAN_MOTION_DOT":"0.00000009","MEAN_MOTION_DDOT":"0.0000000000000","SEMIMAJOR_AXIS":"7555.935","PERIOD":"108.941","APOAPSIS":"1179.095","PERIAPSIS":"1176.505","OBJECT_TYPE":"PAYLOAD","RCS_SIZE":"LARGE","COUNTRY_CODE":"UK","LAUNCH_DATE":"2019-02-27","SITE":"FRGUI","DECAY_DATE":null,"FILE":"2696031","GP_ID":"148168581","TLE_LINE0":"0 ONEWEB-0007","TLE_LINE1":"1 44060U 19010D   20037.33104479 +.00000009 +00000-0 -88998-5 0  9995","TLE_LINE2":"2 44060 087.9236 000.7373 0001714 076.0679 284.0646 13.21814071045602"},{"CCSDS_OMM_VERS":"2.0","COMMENT":"GENERATED VIA SPACE-TRACK.ORG API","CREATION_DATE":"2020-02-07T05:25:45","ORIGINATOR":"18 SPCS","OBJECT_NAME":"ONEWEB-0007","OBJECT_ID":"2019-010D","CENTER_NAME":"EARTH","REF_FRAME":"TEME","TIME_SYSTEM":"UTC","MEAN_ELEMENT_THEORY":"SGP4","EPOCH":"2020-02-06T22:28:44.101056","MEAN_MOTION":"13.21814162","ECCENTRICITY":"0.00017670","INCLINATION":"87.9239","RA_OF_ASC_NODE":"0.6164","ARG_OF_PERICENTER":"76.0700","MEAN_ANOMALY":"284.0630","EPHEMERIS_TYPE":"0","CLASSIFICATION_TYPE":"U","NORAD_CAT_ID":"44060","ELEMENT_SET_NO":"999","REV_AT_EPOCH":"4568","BSTAR":"0.00000822170000","MEAN_MOTION_DOT":"0.00000016","MEAN_MOTION_DDOT":"0.0000000000000","SEMIMAJOR_AXIS":"7555.935","PERIOD":"108.941","APOAPSIS":"1179.135","PERIAPSIS":"1176.465","OBJECT_TYPE":"PAYLOAD","RCS_SIZE":"LARGE","COUNTRY_CODE":"UK","LAUNCH_DATE":"2019-02-27","SITE":"FRGUI","DECAY_DATE":null,"FILE":"2696382","GP_ID":"148196344","TLE_LINE0":"0 ONEWEB-0007","TLE_LINE1":"1 44060U 19010D   20037.93662154 +.00000016 +00000-0 +82217-5 0  9995","TLE_LINE2":"2 44060 087.9239 000.6164 0001767 076.0700 284.0630 13.21814162045687"},{"CCSDS_OMM_VERS":"2.0","COMMENT":"GENERATED VIA SPACE-TRACK.ORG API","CREATION_DATE":"2020-02-07T16:36:20","ORIGINATOR":"18 SPCS","OBJECT_NAME":"ONEWEB-0007","OBJECT_ID":"2019-010D","CENTER_NAME":"EARTH","REF_FRAME":"TEME","TIME_SYSTEM":"UTC","MEAN_ELEMENT_THEORY":"SGP4","EPOCH":"2020-02-07T13:00:45.925344","MEAN_MOTION":"13.21814114","ECCENTRICITY":"0.00017020","INCLINATION":"87.9237","RA_OF_ASC_NODE":"0.4959","ARG_OF_PERICENTER":"75.9192","MEAN_ANOMALY":"284.2131","EPHEMERIS_TYPE":"0","CLASSIFICATION_TYPE":"U","NORAD_CAT_ID":"44060","ELEMENT_SET_NO":"999","REV_AT_EPOCH":"4576","BSTAR":"0.00000215660000","MEAN_MOTION_DOT":"0.00000014","MEAN_MOTION_DDOT":"0.0000000000000","SEMIMAJOR_AXIS":"7555.935","PERIOD":"108.941","APOAPSIS":"1179.086","PERIAPSIS":"1176.514","OBJECT_TYPE":"PAYLOAD","RCS_SIZE":"LARGE","COUNTRY_CODE":"UK","LAUNCH_DATE":"2019-02-27","SITE":"FRGUI","DECAY_DATE":null,"FILE":"2696715","GP_ID":"148242934","TLE_LINE0":"0 ONEWEB-0007","TLE_LINE1":"1 44060U 19010D   20038.54219821 +.00000014 +00000-0 +21566-5 0  9990","TLE_LINE2":"2 44060 087.9237 000.4959 0001702 075.9192 284.2131 13.21814114045761"}]